2011/11/30 12:50
KRYY 301250Z 29008KT 10SM FEW015 OVC026 03/01 A3006