2011/11/23 21:46 KRYY 232146Z 35009G19KT 10SM SCT030 11/05 A3015